CORVUS BC1              
1 42847U 17042Y   26068.93334460  .00004853  00000+0  33801-3 0  9990
2 42847  97.3986 234.9925 0013283  71.1953 289.0714 15.05817892472152
STARLINK-4268           
1 53183U 22083BD  26068.46351894 -.00000550  00000+0 -16449-4 0  9996
2 53183  53.2166 130.0462 0001490  87.0971 273.0192 15.08833641201801
